ENDUROSAT ONE           
1 43551U 98067NZ  20187.36328092  .00050546  00000-0  23197-3 0  9994
2 43551  51.6307 185.7033 0002185  96.6496 263.4755 15.83134844113216
EQUISAT                 
1 43552U 98067PA  20187.06052549  .00020763  00000-0  13969-3 0  9997
2 43552  51.6310 198.1222 0002690 138.8262 221.2941 15.75132462112987
AEROCUBE 12A            
1 43556U 18046C   20187.27024857  .00001221  00000-0  53981-4 0  9991
2 43556  51.6432  19.9478 0008209   4.3927 355.7124 15.29849598110108
AEROCUBE 12B            
1 43557U 18046D   20187.39974725  .00001001  00000-0  46838-4 0  9992
2 43557  51.6434  20.0498 0008277   4.3071 355.7979 15.29562328110067
UITMSAT-1               
1 43589U 98067PD  20187.11329221  .00034937  00000-0  20157-3 0  9992
2 43589  51.6324 195.2803 0001366 142.7049 217.4047 15.78311027108765
MAYA-1                  
1 43590U 98067PE  20187.42276564  .00035774  00000-0  20615-3 0  9998
2 43590  51.6267 193.5818 0001482 129.7532 230.3600 15.78325638108741
BHUTAN-1                
1 43591U 98067PF  20186.76021401  .00028531  00000-0  16433-3 0  9999
2 43591  51.6331 196.7507 0001399 144.8372 215.2721 15.78460347108643
SIRIUSSAT-1             
1 43595U 98067PG  20187.09860230  .00023751  00000-0  15579-3 0  9990
2 43595  51.6278 200.4647 0001982  76.0077 284.1143 15.75623974107805
SIRIUSSAT-2             
1 43596U 98067PH  20187.09823202  .00024139  00000-0  15906-3 0  9994
2 43596  51.6277 201.2896 0002170  78.7703 281.3541 15.75507310107799
TANUSHA-3               
1 43597U 98067PJ  20187.36217316  .00091993  00000-0  31864-3 0  9991
2 43597  51.6250 184.7311 0003663  50.7174 309.4156 15.88705057108032
SURFSAT                 
1 43614U 18070B   20187.08906838  .00001770  00000-0  45617-4 0  9996
2 43614  93.0211 161.8766 0012286 269.6011  90.3835 15.39259459101197
CP7 (DAVE)              
1 43615U 18070C   20186.86210962  .00001629  00000-0  42182-4 0  9995
2 43615  93.0213 161.7723 0012447 270.0991  89.8837 15.39109497101151
ELFIN-B                 
1 43616U 18070D   20187.40685246  .00002870  00000-0  70903-4 0  9999
2 43616  93.0171 161.9456 0012716 269.1435  90.8363 15.40491408101289
ELFIN-A                 
1 43617U 18070E   20186.85340210  .00002697  00000-0  66239-4 0  9991
2 43617  93.0222 162.2429 0012037 267.6341  92.3536 15.40681321101202
CUBEBEL-1 (BSUSAT-1)    
1 43666U 18083E   20187.36768144  .00000589  00000-0  32020-4 0  9995
2 43666  97.4882 213.6559 0013409 301.1909 184.1380 15.18289326 93334
CICERO 10               
1 43690U 18088A   20187.19936746  .00000613  00000-0  26390-4 0  9994
2 43690  85.0376  66.6313 0012762 241.1524 118.8436 15.20252758 91430
IRVINE01                
1 43693U 18088D   20187.16740312  .00001678  00000-0  69602-4 0  9991
2 43693  85.0349  65.2885 0015914 221.1031 138.9014 15.22936953 91540
PROXIMA I               
1 43694U 18088E   20187.17128899  .00000685  00000-0  28095-4 0  9991
2 43694  85.0320  65.1369 0017729 212.7381 147.2764 15.21997043 91536
PROXIMA II              
1 43696U 18088G   20187.16948893  .00000683  00000-0  28038-4 0  9991
2 43696  85.0320  65.1418 0017781 212.6555 147.3589 15.21998908 91530
FACSAT-1                
1 43721U 18096C   20187.42550455  .00001122  00000-0  44590-4 0  9991
2 43721  97.4201 260.9022 0019041  62.3790 297.9380 15.27267798 89138
CENTAURI-2              
1 43722U 18096D   20186.79003086  .00001257  00000-0  48858-4 0  9994
2 43722  97.4213 260.5622 0019060  64.2567 296.0637 15.27803353 89046
INNOSAT-2               
1 43738U 18096V   20187.44107850  .00002347  00000-0  81743-4 0  9999
2 43738  97.4235 263.2548 0024868  67.7878 292.5997 15.30409598 89282
SIRION PATHFINDER-2     
1 43759U 18099B   20187.44548191 -.00000297  00000-0 -21723-4 0  9998
2 43759  97.7048 258.7985 0015564 120.2155 240.0609 14.95285817 86629
CORVUS-BC 4             
1 43767U 18099K   20186.85778045 -.00000045  00000-0  10841-5 0  9994
2 43767  97.7027 257.6129 0013049 125.3818 234.8624 14.94729495 86500
MOVE-II                 
1 43780U 18099Y   20187.45711685  .00000132  00000-0  17103-4 0  9996
2 43780  97.7053 258.7460 0014751 131.0856 229.1642 14.95415283 86607
SPACEBEE-7              
1 43816U 18099BL  20186.72394096  .00000002  00000-0  53310-5 0  9995
2 43816  97.7066 258.4273 0014767 118.9862 241.2842 14.95705362 86076
SPACEBEE-5              
1 43817U 18099BM  20187.13828013  .00000863  00000-0  81290-4 0  9995
2 43817  97.7118 259.3090 0014774 118.3985 241.8728 14.96333948 86156
SPACEBEE-6              
1 43818U 18099BN  20186.75205120  .00000882  00000-0  83816-4 0  9998
2 43818  97.7086 258.6021 0015004 118.4626 241.8109 14.95904047 86232
SHIELDS 1               
1 43850U 18104B   20187.42157283  .00000391  00000-0  15584-4 0  9994
2 43850  85.0297 163.4782 0015310  13.4305 346.7340 15.21401027 86206
STF-1                   
1 43852U 18104D   20186.44911709  .00000831  00000-0  35213-4 0  9998
2 43852  85.0339 164.6735 0015779  30.7442 329.4720 15.21311169 86037
ZACUBE-2                
1 43907U 18111AH  20187.43596534  .00000379  00000-0  18085-4 0  9997
2 43907  97.2642  86.6579 0023272  80.8114 279.5755 15.24604122 84755
LUME 1                  
1 43908U 18111AJ  20187.35475853  .00000764  00000-0  33137-4 0  9992
2 43908  97.2643  86.7621 0023036  80.5809 279.8032 15.25065909 84758
AOBA VELOX-IV           
1 43940U 19003J   20187.09448701  .00001356  00000-0  56616-4 0  9997
2 43940  97.2266 237.7675 0024546 157.0455 203.1887 15.25060966 81333
CATSAT-2                
1 44029U 98067PV  20186.54923408  .00008668  00000-0  89404-4 0  9998
2 44029  51.6371 229.3594 0003077 140.8590 219.2629 15.65715524 81205
DELPHINI                
1 44030U 98067PW  20187.12973631  .00012013  00000-0  11685-3 0  9992
2 44030  51.6325 224.8632 0002727 134.8670 225.2548 15.66754482 81284
UNITE                   
1 44031U 98067PX  20186.84440227  .00005844  00000-0  72710-4 0  9992
2 44031  51.6364 234.2927 0002761 129.6785 230.4452 15.61573461 81134
CATSAT-1                
1 44033U 98067PZ  20186.54912949  .00008953  00000-0  92183-4 0  9996
2 44033  51.6373 229.3656 0003062 138.1419 221.9811 15.65709058 81113
RAAVANA-1               
1 44329U 98067QE  20187.34469341  .00007018  00000-0  97716-4 0  9994
2 44329  51.6386 244.4419 0006119  67.2677 292.8962 15.58171975 59790
UGUISU                  
1 44330U 98067QF  20187.16575428  .00006928  00000-0  96874-4 0  9993
2 44330  51.6367 245.4883 0006151  65.4679 294.6954 15.58079256 59740
NEPALISAT-1             
1 44331U 98067QG  20187.40101573  .00006799  00000-0  94807-4 0  9997
2 44331  51.6367 244.0619 0006143  69.3580 290.8071 15.58191286 59799
SPOOQY-1                
1 44332U 98067QH  20187.40554898  .00006688  00000-0  93708-4 0  9996
2 44332  51.6377 244.0913 0005137  71.4729 288.6821 15.58094254 59750
SPACEBEE-9              
1 44370U 19037F   20186.81794785  .00005362  00000-0  12396-3 0  9994
2 44370  45.0077  18.6452 0013854 283.2641  76.6703 15.43622925 57286
SPACEBEE-8              
1 44371U 19037G   20187.35817041  .00013644  00000-0  26080-3 0  9993
2 44371  45.0074   9.1768 0012150 285.4037  74.5512 15.48032305 57423
IOD-1 GEMS              
1 44385U 98067QK  20186.59670298  .00010121  00000-0  12609-3 0  9993
2 44385  51.6391 246.2437 0002932  26.2945 333.8197 15.60582682 57170
MOVE-IIB                
1 44398U 19038N   20186.88766375  .00000738  00000-0  46035-4 0  9996
2 44398  97.5369 147.8969 0026881  68.7177 291.6920 15.12348324 55219
SONATE                  
1 44400U 19038Q   20186.86020996  .00000297  00000-0  21020-4 0  9997
2 44400  97.5409 147.8842 0026830  67.6560 292.7510 15.11967999 55206
LUCKY-7                 
1 44406U 19038W   20186.87283421  .00000329  00000-0  22671-4 0  9997
2 44406  97.5403 148.0062 0026246  67.2380 293.1620 15.12235190 55209
BEESAT 9                
1 44412U 19038AC  20187.33369032  .00000548  00000-0  35191-4 0  9993
2 44412  97.5395 148.4427 0024397  71.2494 289.1381 15.12320144 54977
JAISAT-1                
1 44419U 19038F   20187.41441332  .00000575  00000-0  36311-4 0  9998
2 44419  97.5395 148.8003 0023242  70.2033 290.1700 15.12803606 55319
SWIATOWID               
1 44426U 98067QL  20187.45115850  .00012184  00000-0  14495-3 0  9999
2 44426  51.6409 241.2159 0003403  26.3289  73.6129 15.61569703 57329
KRAKSAT                 
1 44427U 98067QM  20187.44620362  .00004348  00000-0  67822-4 0  9994
2 44427  51.6427 247.3746 0003548  29.8217 344.6818 15.56158085 57280
VCC A                   
1 44428U 98067QN  20186.89555277  .00005826  00000-0  84246-4 0  9996
2 44428  51.6393 248.2370 0002942  41.3675 318.7540 15.57517238 57228
ENTRYSAT                
1 44429U 98067QP  20187.17437661  .00008481  00000-0  11503-3 0  9990
2 44429  51.6380 245.5699 0002787  32.3471 327.7692 15.58563924 57288
VCC C                   
1 44430U 98067QQ  20186.87763935  .00008653  00000-0  11214-3 0  9994
2 44430  51.6375 245.8474 0002596  42.9393 317.1803 15.59755758 56089
VCC B                   
1 44431U 98067QR  20187.40807863  .00006790  00000-0  96886-4 0  9993
2 44431  51.6382 245.6442 0003103  42.6389 317.4844 15.57569442 57246
ATL-1                   
1 44830U 19084G   20186.88064260  .00053248  00000-0  27881-3 0  9993
2 44830  96.9716  56.2225 0025545 165.0034 195.1998 15.80174054 33206
SMOG-P                  
1 44832U 19084J   20187.24051335  .00075011  00000-0  36320-3 0  9995
2 44832  96.9710  56.7969 0024126 161.9370 198.2763 15.81857138 33277
DUCHIFAT-3              
1 44854U 19089C   20187.14554633  .00000168  00000-0  19978-4 0  9994
2 44854  36.9692 353.7967 0008036 218.5120 141.5059 14.99077792 30955
ORBITAL FACTORY 2 (OF-2)
1 45113U 19071C   20187.14599553  .00000967  00000-0  41042-4 0  9998
2 45113  51.6444 278.0776 0013443 120.5609 239.6701 15.33406314 23840
